NORAD_CAT_ID,OBJECT_NAME,OBJECT_TYPE,EPOCH,MEAN_MOTION,ECCENTRICITY,INCLINATION,RA_OF_ASC_NODE,ARG_OF_PERICENTER,MEAN_ANOMALY,BSTAR,MEAN_MOTION_DOT,MEAN_MOTION_DDOT,TLE_LINE0,TLE_LINE1,TLE_LINE2,SEMIMAJOR_AXIS,PERIOD,APOGEE,PERIGEE,DECAYED
51465.0,STARLINK-3401,PAYLOAD,2024-04-28 08:05:30,15.08832912,0.0001387,53.2182,93.342,88.8533,271.2618,-0.00010296,-1.926e-05,0.0,0 STARLINK-3401,1 51465U 22010K   24119.33715983 -.00001926  00000-0 -10296-3 0  9993,2 51465  53.2182  93.3420 0001387  88.8533 271.2618 15.08832912124619,6917.902,95.438,540.727,538.808,0.0
51465.0,STARLINK-3401,PAYLOAD,2024-04-29 04:45:30,15.08839802,0.0001321,53.2182,89.4762,92.7462,267.3681,3.2786e-05,2.34e-06,0.0,0 STARLINK-3401,1 51465U 22010K   24120.19827335  .00000234  00000-0  32786-4 0  9992,2 51465  53.2182  89.4762 0001321  92.7462 267.3681 15.08839802124742,6917.881,95.438,540.66,538.832,0.0
51465.0,STARLINK-3401,PAYLOAD,2024-04-29 22:14:45,15.08832045,0.0001351,53.2184,86.2052,87.6788,272.4359,0.00021439,3.125e-05,0.0,0 STARLINK-3401,1 51465U 22010K   24120.92691453  .00003125  00000-0  21439-3 0  9997,2 51465  53.2184  86.2052 0001351  87.6788 272.4359 15.08832045124851,6917.905,95.438,540.704,538.835,0.0
51465.0,STARLINK-3401,PAYLOAD,2024-04-30 14:08:36,15.08846834,0.000134,53.2188,83.2319,87.0237,273.0909,0.00023391,3.437e-05,0.0,0 STARLINK-3401,1 51465U 22010K   24121.58930903  .00003437  00000-0  23391-3 0  9991,2 51465  53.2188  83.2319 0001340  87.0237 273.0909 15.08846834124959,6917.86,95.437,540.651,538.798,0.0
51465.0,STARLINK-3401,PAYLOAD,2024-04-30 22:05:33,15.08832966,0.0001435,53.2183,81.7459,94.1118,266.0038,1.6119e-05,-3.1e-07,0.0,0 STARLINK-3401,1 51465U 22010K   24121.92052396 -.00000031  00000-0  16119-4 0  9999,2 51465  53.2183  81.7459 0001435  94.1118 266.0038 15.08832966125007,6917.902,95.438,540.76,538.774,0.0
51465.0,STARLINK-3401,PAYLOAD,2024-05-01 04:27:05,15.08836749,0.0001412,53.2188,80.5576,97.8946,262.2207,4.6709e-05,4.55e-06,0.0,0 STARLINK-3401,1 51465U 22010K   24122.18548168  .00000455  00000-0  46709-4 0  9992,2 51465  53.2188  80.5576 0001412  97.8946 262.2207 15.08836749125046,6917.89,95.438,540.732,538.779,0.0
51465.0,STARLINK-3401,PAYLOAD,2024-05-01 13:59:23,15.08844452,0.0001515,53.2198,78.7736,95.1447,264.9718,9.1411e-05,1.167e-05,0.0,0 STARLINK-3401,1 51465U 22010K   24122.58291542  .00001167  00000-0  91411-4 0  9998,2 51465  53.2198  78.7736 0001515  95.1447 264.9718 15.08844452125108,6917.867,95.437,540.78,538.684,0.0
51465.0,STARLINK-3401,PAYLOAD,2024-05-02 04:17:52,15.08834557,0.0001433,53.2188,76.096,90.8295,269.2861,-1.6814e-05,-5.55e-06,0.0,0 STARLINK-3401,1 51465U 22010K   24123.17908548 -.00000555  00000-0 -16814-4 0  9991,2 51465  53.2188  76.0960 0001433  90.8295 269.2861 15.08834557125190,6917.897,95.438,540.753,538.771,0.0
51465.0,STARLINK-3401,PAYLOAD,2024-05-02 13:50:11,15.088449,0.000144,53.2189,74.3111,85.3413,274.7744,4.3077e-05,3.98e-06,0.0,0 STARLINK-3401,1 51465U 22010K   24123.57651796  .00000398  00000-0  43077-4 0  9999,2 51465  53.2189  74.3111 0001440  85.3413 274.7744 15.08844900125250,6917.865,95.437,540.727,538.734,0.0
51465.0,STARLINK-3401,PAYLOAD,2024-05-03 13:40:57,15.08858481,0.0001226,53.2165,69.8496,73.2594,286.8533,0.00031435,4.721e-05,0.0,0 STARLINK-3401,1 51465U 22010K   24124.57010781  .00004721  00000-0  31435-3 0  9991,2 51465  53.2165  69.8496 0001226  73.2594 286.8533 15.08858481125403,6917.824,95.436,540.537,538.841,0.0
51465.0,STARLINK-3401,PAYLOAD,2024-05-04 02:24:04,15.08815976,0.0001296,53.2176,67.4715,79.4963,280.6175,-0.0001354,-2.441e-05,0.0,0 STARLINK-3401,1 51465U 22010K   24125.10005427 -.00002441  00000-0 -13540-3 0  9998,2 51465  53.2176  67.4715 0001296  79.4963 280.6175 15.08815976125482,6917.954,95.439,540.715,538.922,0.0
51465.0,STARLINK-3401,PAYLOAD,2024-05-04 13:31:46,15.0883119,0.0001443,53.2175,65.3912,78.7048,281.4106,7.9737e-06,-1.61e-06,0.0,0 STARLINK-3401,1 51465U 22010K   24125.56373174 -.00000161  00000-0  79737-5 0  9993,2 51465  53.2175  65.3912 0001443  78.7048 281.4106 15.08831190125554,6917.907,95.438,540.771,538.774,0.0
51465.0,STARLINK-3401,PAYLOAD,2024-05-05 05:25:37,15.08844097,0.0001383,53.2171,62.4161,85.0009,275.1141,0.00057793,8.923e-05,0.0,0 STARLINK-3401,1 51465U 22010K   24126.22613161  .00008923  00000-0  57793-3 0  9999,2 51465  53.2171  62.4161 0001383  85.0009 275.1141 15.08844097125655,6917.868,95.437,540.69,538.776,0.0
51465.0,STARLINK-3401,PAYLOAD,2024-05-05 22:54:52,15.08860083,0.0001482,53.2178,59.1449,79.0601,281.0557,0.00077791,0.00012121,0.0,0 STARLINK-3401,1 51465U 22010K   24126.95476852  .00012121  00000-0  77791-3 0  9998,2 51465  53.2178  59.1449 0001482  79.0601 281.0557 15.08860083125767,6917.819,95.436,540.709,538.659,0.0
51465.0,STARLINK-3401,PAYLOAD,2024-05-06 05:16:24,15.08872688,0.0001467,53.2185,57.955,82.6941,277.4218,0.0010658,0.0001673,0.0,0 STARLINK-3401,1 51465U 22010K   24127.21972330  .00016730  00000-0  10658-2 0  9998,2 51465  53.2185  57.9550 0001467  82.6941 277.4218 15.08872688125806,6917.78,95.435,540.66,538.631,0.0
51465.0,STARLINK-3401,PAYLOAD,2024-05-06 22:45:38,15.08862916,0.0001561,53.2189,54.683,86.2309,273.8861,0.00042497,6.486e-05,0.0,0 STARLINK-3401,1 51465U 22010K   24127.94835679  .00006486  00000-0  42497-3 0  9996,2 51465  53.2189  54.6830 0001561  86.2309 273.8861 15.08862916125917,6917.81,95.436,540.755,538.595,0.0
51465.0,STARLINK-3401,PAYLOAD,2024-05-07 01:56:24,15.08860482,0.0001308,53.2195,54.0896,90.9836,269.1306,0.00027965,4.168e-05,0.0,0 STARLINK-3401,1 51465U 22010K   24128.08083575  .00004168  00000-0  27965-3 0  9990,2 51465  53.2195  54.0896 0001308  90.9836 269.1306 15.08860482125936,6917.818,95.436,540.588,538.778,0.0
51465.0,STARLINK-3401,PAYLOAD,2024-05-07 11:28:42,15.08865855,0.0001303,53.2203,52.3063,93.7707,266.3434,0.00033271,5.015e-05,0.0,0 STARLINK-3401,1 51465U 22010K   24128.47826882  .00005015  00000-0  33271-3 0  9998,2 51465  53.2203  52.3063 0001303  93.7707 266.3434 15.08865855125992,6917.801,95.436,540.568,538.765,0.0
51465.0,STARLINK-3401,PAYLOAD,2024-05-07 19:25:38,15.08861944,0.0003825,53.2192,50.8202,78.2363,281.9058,0.00033292,5.017e-05,0.0,0 STARLINK-3401,1 51465U 22010K   24128.80947587  .00005017  00000-0  33292-3 0  9996,2 51465  53.2192  50.8202 0003825  78.2363 281.9058 15.08861944126041,6917.813,95.436,542.324,537.032,0.0
51465.0,STARLINK-3401,PAYLOAD,2024-05-07 22:36:25,15.08828395,0.000165,53.218,50.2234,76.038,284.0795,-0.00041041,-6.812e-05,0.0,0 STARLINK-3401,1 51465U 22010K   24128.94196198 -.00006812  00000-0 -41041-3 0  9992,2 51465  53.2180  50.2234 0001650  76.0380 284.0795 15.08828395126063,6917.916,95.438,540.922,538.639,0.0
51465.0,STARLINK-3401,PAYLOAD,2024-05-08 01:47:11,15.08833137,0.0001456,53.2186,49.6335,91.402,268.7139,-0.0002825,-4.78e-05,0.0,0 STARLINK-3401,1 51465U 22010K   24129.07444066 -.00004780  00000-0 -28250-3 0  9996,2 51465  53.2186  49.6335 0001456  91.4020 268.7139 15.08833137126082,6917.901,95.438,540.774,538.759,0.0
51465.0,STARLINK-3401,PAYLOAD,2024-05-08 11:19:30,15.08843522,0.0001514,53.2195,47.8489,95.2211,264.8954,5.2737e-05,5.51e-06,0.0,0 STARLINK-3401,1 51465U 22010K   24129.47187853  .00000551  00000-0  52737-4 0  9996,2 51465  53.2195  47.8489 0001514  95.2211 264.8954 15.08843522126149,6917.87,95.437,540.782,538.687,0.0
51465.0,STARLINK-3401,PAYLOAD,2024-05-08 22:27:13,15.08829755,0.0001589,53.2192,45.7672,99.4951,260.6221,-7.8366e-05,-1.535e-05,0.0,0 STARLINK-3401,1 51465U 22010K   24129.93556735 -.00001535  00000-0 -78366-4 0  9997,2 51465  53.2192  45.7672 0001589  99.4951 260.6221 15.08829755126217,6917.912,95.438,540.876,538.677,0.0
51465.0,STARLINK-3401,PAYLOAD,2024-05-09 01:37:59,15.08830844,0.0001521,53.2194,45.175,105.236,254.8801,-5.3089e-05,-1.133e-05,0.0,0 STARLINK-3401,1 51465U 22010K   24130.06804839 -.00001133  00000-0 -53089-4 0  9993,2 51465  53.2194  45.1750 0001521 105.2360 254.8801 15.08830844126238,6917.908,95.438,540.826,538.721,0.0
51465.0,STARLINK-3401,PAYLOAD,2024-05-09 11:10:17,15.08848374,0.0001436,53.2202,43.3867,87.0485,273.0672,0.00017089,2.433e-05,0.0,0 STARLINK-3401,1 51465U 22010K   24130.46548000  .00002433  00000-0  17089-3 0  9993,2 51465  53.2202  43.3867 0001436  87.0485 273.0672 15.08848374126299,6917.855,95.437,540.713,538.726,0.0
51465.0,STARLINK-3401,PAYLOAD,2024-05-09 22:18:00,15.08830983,0.0001912,53.22,41.3062,89.8126,270.3085,0.00021576,3.147e-05,0.0,0 STARLINK-3401,1 51465U 22010K   24130.92917308  .00003147  00000-0  21576-3 0  9994,2 51465  53.2200  41.3062 0001912  89.8126 270.3085 15.08830983126366,6917.908,95.438,541.096,538.45,0.0
51465.0,STARLINK-3401,PAYLOAD,2024-05-10 03:04:09,15.08837112,0.0001423,53.2177,40.4133,83.5328,276.5826,0.00021559,3.145e-05,0.0,0 STARLINK-3401,1 51465U 22010K   24131.12789033  .00003145  00000-0  21559-3 0  9998,2 51465  53.2177  40.4133 0001423  83.5328 276.5826 15.08837112126395,6917.889,95.438,540.739,538.77,0.0
51465.0,STARLINK-3401,PAYLOAD,2024-05-10 11:01:04,15.08855821,0.0001551,53.2187,38.9276,79.0385,281.0782,0.00035289,5.335e-05,0.0,0 STARLINK-3401,1 51465U 22010K   24131.45908002  .00005335  00000-0  35289-3 0  9991,2 51465  53.2187  38.9276 0001551  79.0385 281.0782 15.08855821126446,6917.832,95.437,540.77,538.624,0.0
51465.0,STARLINK-3401,PAYLOAD,2024-05-10 22:08:47,15.08841539,0.000165,53.2181,36.8474,84.5347,275.5833,0.00020648,3e-05,0.0,0 STARLINK-3401,1 51465U 22010K   24131.92276914  .00003000  00000-0  20648-3 0  9993,2 51465  53.2181  36.8474 0001650  84.5347 275.5833 15.08841539126510,6917.876,95.437,540.882,538.599,0.0
51465.0,STARLINK-3401,PAYLOAD,2024-05-11 02:54:54,15.08887091,0.0001227,53.2184,35.9498,101.9101,258.2029,0.00071914,0.0001119,0.0,0 STARLINK-3401,1 51465U 22010K   24132.12146712  .00011190  00000-0  71914-3 0  9999,2 51465  53.2184  35.9498 0001227 101.9101 258.2029 15.08887091126542,6917.736,95.435,540.45,538.753,0.0
